IRIDIUM 155             
1 43573U 18061E   23032.55719671  .00000108  00000+0  31613-4 0  9995
2 43573  86.3977 211.3603 0002310  89.8233 270.3228 14.34217840236828
IRIDIUM 154             
1 43574U 18061F   23032.53816383  .00000101  00000+0  28977-4 0  9994
2 43574  86.3980 211.4421 0001913  99.4328 260.7084 14.34217465236873
IRIDIUM 163             
1 43575U 18061G   23032.51914706  .00000087  00000+0  24109-4 0  9997
2 43575  86.3980 211.4037 0001746  87.4096 272.7300 14.34219672236843
IRIDIUM 156             
1 43576U 18061H   23032.56354943  .00000101  00000+0  29068-4 0  9990
2 43576  86.3978 211.3906 0001978  83.1129 277.0292 14.34215533236842
IRIDIUM 164             
1 43577U 18061J   23032.54451873  .00000096  00000+0  27191-4 0  9997
2 43577  86.3979 211.4199 0001801  96.4222 263.7179 14.34214861236888
IRIDIUM 159             
1 43578U 18061K   23032.51280313  .00000097  00000+0  27686-4 0  9994
2 43578  86.3977 211.3960 0001880  96.7954 263.3456 14.34220764236843
IRIDIUM 180             
1 43922U 19002A   23032.37277017  .00000300  00000+0  99936-4 0  9998
2 43922  86.4016 148.4356 0001745 104.2017 255.9373 14.34219607212433
IRIDIUM 176             
1 43923U 19002B   23032.38025051  .00001122  00000+0  17404-3 0  9991
2 43923  86.6150 148.4739 0002193  91.2513 268.8955 14.72250437218011
IRIDIUM 168             
1 43924U 19002C   23032.36642991  .00000312  00000+0  10438-3 0  9998
2 43924  86.4019 148.4807 0001951 102.8124 257.3290 14.34214497212415
IRIDIUM 173             
1 43925U 19002D   23032.42351580  .00000306  00000+0  10230-3 0  9990
2 43925  86.4017 148.3962 0001907 102.2578 257.8831 14.34215167212403
IRIDIUM 169             
1 43926U 19002E   23032.48911132  .00000397  00000+0  12323-3 0  9997
2 43926  86.4274 179.9214 0006020  84.5751 275.6134 14.38608601213144
IRIDIUM 172             
1 43927U 19002F   23032.34740080  .00000308  00000+0  10296-3 0  9994
2 43927  86.4015 148.4322 0001799 105.0562 255.0833 14.34221491212406
IRIDIUM 175             
1 43928U 19002G   23032.37407806  .00001122  00000+0  17398-3 0  9999
2 43928  86.6150 148.3134 0002285  94.5931 265.5548 14.72248673218006
IRIDIUM 171             
1 43929U 19002H   23032.39814004  .00000285  00000+0  94830-4 0  9990
2 43929  86.4024 148.5804 0001969 102.9139 257.2276 14.34214674212409
IRIDIUM 170             
1 43930U 19002J   23032.59034057  .00001085  00000+0  16812-3 0  9998
2 43930  86.6150 148.3914 0002219  96.8134 263.3336 14.72248273218054
IRIDIUM 167             
1 43931U 19002K   23032.39179722  .00000306  00000+0  10207-3 0  9993
2 43931  86.4016 148.4251 0001808 103.4126 256.7271 14.34220922212404
